ALOS (DAICHI)           
1 28931U 06002A   25351.73419158  .00001110  00000+0  19545-3 0  9994
2 28931  98.1098 303.1864 0001361 113.5739 246.5610 14.69501788 61443
H-2A R/B                
1 28932U 06002B   25364.95153498  .00016465  00000+0  85277-3 0  9999
2 28932  98.2317 141.1931 0054681 114.9533 245.7392 15.14972660 84023
RESURS-DK 1             
1 29228U 06021A   25365.15312762  .00004926  00000+0  28994-3 0  9995
2 29228  69.9345  54.2476 0007027 243.0885 116.9563 15.12280016 77163
CZ-4B R/B               
1 29507U 06046C   25365.11898595  .00009111  00000+0  46946-3 0  9999
2 29507  97.5718  45.2077 0034732 143.0591 217.3043 15.16079992 49652
CZ-2C R/B               
1 31114U 07010B   25365.03634080  .00000267  00000+0  14144-3 0  9994
2 31114  98.3976 116.7666 0059833 133.2045 227.4152 14.20218247969977
COSMO-SKYMED 1          
1 31598U 07023A   25365.18392133  .00006903  00000+0  62167-3 0  9991
2 31598  97.8830 190.7054 0001068  85.3183 274.8160 14.95919500  4669
COSMOS 2428             
1 31792U 07029A   25365.14575924  .00000347  00000+0  21216-3 0  9996
2 31792  70.9375 347.2338 0004731 358.0355   2.0746 14.12899075954417
SL-16 R/B               
1 31793U 07029B   25365.11537299  .00000264  00000+0  16184-3 0  9993
2 31793  70.9772 316.5300 0001987 269.1534 102.1099 14.14823312955673
KORONAS-FOTON           
1 33504U 09003A   25364.99674821  .00014329  00000+0  33912-3 0  9992
2 33504  82.4308 347.1824 0012970  51.7774 308.4638 15.41565953935150
CZ-2C R/B               
1 37731U 11030B   25364.90546958  .00002630  00000+0  33895-3 0  9993
2 37731  97.8429 318.6129 0051864 212.9631 214.8200 14.80964089779919
H-2A R/B                
1 38341U 12025E   25365.11866766  .00005341  00000+0  49010-3 0  9990
2 38341  98.4620 321.7698 0044888 175.0033 185.1642 14.94580065737979
SHIJIAN-16 (SJ-16)      
1 39358U 13057A   25365.17620057  .00002882  00000+0  28584-3 0  9992
2 39358  74.9738 314.7679 0018021 277.2067  82.7072 14.92059840661289
