CCSDS_OMM_VERS = 2.0
CREATION_DATE  = 
ORIGINATOR     = 

OBJECT_NAME    = ALOS (DAICHI)
OBJECT_ID      = 2006-002A
CENTER_NAME    = EARTH
REF_FRAME      = TEME
TIME_SYSTEM    = UTC
MEAN_ELEMENT_THEORY = SGP/SGP4

EPOCH          = 2025-12-17T17:37:14.152512
MEAN_MOTION    = 14.69501788
ECCENTRICITY   = .00013612
INCLINATION    = 98.1098
RA_OF_ASC_NODE = 303.1864
ARG_OF_PERICENTER = 113.5739
MEAN_ANOMALY   = 246.5610

EPHEMERIS_TYPE = 0
CLASSIFICATION_TYPE = U
NORAD_CAT_ID   = 28931
ELEMENT_SET_NO = 999
REV_AT_EPOCH   = 6144
BSTAR          = .19545051E-3
MEAN_MOTION_DOT = .111E-4
MEAN_MOTION_DDOT = 0

CCSDS_OMM_VERS = 2.0
CREATION_DATE  = 
ORIGINATOR     = 

OBJECT_NAME    = H-2A R/B
OBJECT_ID      = 2006-002B
CENTER_NAME    = EARTH
REF_FRAME      = TEME
TIME_SYSTEM    = UTC
MEAN_ELEMENT_THEORY = SGP/SGP4

EPOCH          = 2025-12-30T22:50:12.622272
MEAN_MOTION    = 15.14972660
ECCENTRICITY   = .0054681
INCLINATION    = 98.2317
RA_OF_ASC_NODE = 141.1931
ARG_OF_PERICENTER = 114.9533
MEAN_ANOMALY   = 245.7392

EPHEMERIS_TYPE = 0
CLASSIFICATION_TYPE = U
NORAD_CAT_ID   = 28932
ELEMENT_SET_NO = 999
REV_AT_EPOCH   = 8402
BSTAR          = .85277E-3
MEAN_MOTION_DOT = .16465E-3
MEAN_MOTION_DDOT = 0

CCSDS_OMM_VERS = 2.0
CREATION_DATE  = 
ORIGINATOR     = 

OBJECT_NAME    = RESURS-DK 1
OBJECT_ID      = 2006-021A
CENTER_NAME    = EARTH
REF_FRAME      = TEME
TIME_SYSTEM    = UTC
MEAN_ELEMENT_THEORY = SGP/SGP4

EPOCH          = 2025-12-31T03:40:30.226368
MEAN_MOTION    = 15.12280016
ECCENTRICITY   = .0007027
INCLINATION    = 69.9345
RA_OF_ASC_NODE = 54.2476
ARG_OF_PERICENTER = 243.0885
MEAN_ANOMALY   = 116.9563

EPHEMERIS_TYPE = 0
CLASSIFICATION_TYPE = U
NORAD_CAT_ID   = 29228
ELEMENT_SET_NO = 999
REV_AT_EPOCH   = 7716
BSTAR          = .28994E-3
MEAN_MOTION_DOT = .4926E-4
MEAN_MOTION_DDOT = 0

CCSDS_OMM_VERS = 2.0
CREATION_DATE  = 
ORIGINATOR     = 

OBJECT_NAME    = CZ-4B R/B
OBJECT_ID      = 2006-046C
CENTER_NAME    = EARTH
REF_FRAME      = TEME
TIME_SYSTEM    = UTC
MEAN_ELEMENT_THEORY = SGP/SGP4

EPOCH          = 2025-12-31T02:51:20.386080
MEAN_MOTION    = 15.16079992
ECCENTRICITY   = .0034732
INCLINATION    = 97.5718
RA_OF_ASC_NODE = 45.2077
ARG_OF_PERICENTER = 143.0591
MEAN_ANOMALY   = 217.3043

EPHEMERIS_TYPE = 0
CLASSIFICATION_TYPE = U
NORAD_CAT_ID   = 29507
ELEMENT_SET_NO = 999
REV_AT_EPOCH   = 4965
BSTAR          = .46946E-3
MEAN_MOTION_DOT = .9111E-4
MEAN_MOTION_DDOT = 0

CCSDS_OMM_VERS = 2.0
CREATION_DATE  = 
ORIGINATOR     = 

OBJECT_NAME    = CZ-2C R/B
OBJECT_ID      = 2007-010B
CENTER_NAME    = EARTH
REF_FRAME      = TEME
TIME_SYSTEM    = UTC
MEAN_ELEMENT_THEORY = SGP/SGP4

EPOCH          = 2025-12-31T00:52:19.845120
MEAN_MOTION    = 14.20218247
ECCENTRICITY   = .0059833
INCLINATION    = 98.3976
RA_OF_ASC_NODE = 116.7666
ARG_OF_PERICENTER = 133.2045
MEAN_ANOMALY   = 227.4152

EPHEMERIS_TYPE = 0
CLASSIFICATION_TYPE = U
NORAD_CAT_ID   = 31114
ELEMENT_SET_NO = 999
REV_AT_EPOCH   = 96997
BSTAR          = .14144E-3
MEAN_MOTION_DOT = .267E-5
MEAN_MOTION_DDOT = 0

CCSDS_OMM_VERS = 2.0
CREATION_DATE  = 
ORIGINATOR     = 

OBJECT_NAME    = COSMO-SKYMED 1
OBJECT_ID      = 2007-023A
CENTER_NAME    = EARTH
REF_FRAME      = TEME
TIME_SYSTEM    = UTC
MEAN_ELEMENT_THEORY = SGP/SGP4

EPOCH          = 2025-12-31T04:24:50.802912
MEAN_MOTION    = 14.95919500
ECCENTRICITY   = .0001068
INCLINATION    = 97.8830
RA_OF_ASC_NODE = 190.7054
ARG_OF_PERICENTER = 85.3183
MEAN_ANOMALY   = 274.8160

EPHEMERIS_TYPE = 0
CLASSIFICATION_TYPE = U
NORAD_CAT_ID   = 31598
ELEMENT_SET_NO = 999
REV_AT_EPOCH   = 466
BSTAR          = .62167E-3
MEAN_MOTION_DOT = .6903E-4
MEAN_MOTION_DDOT = 0

CCSDS_OMM_VERS = 2.0
CREATION_DATE  = 
ORIGINATOR     = 

OBJECT_NAME    = COSMOS 2428
OBJECT_ID      = 2007-029A
CENTER_NAME    = EARTH
REF_FRAME      = TEME
TIME_SYSTEM    = UTC
MEAN_ELEMENT_THEORY = SGP/SGP4

EPOCH          = 2025-12-31T03:29:53.598336
MEAN_MOTION    = 14.12899075
ECCENTRICITY   = .0004731
INCLINATION    = 70.9375
RA_OF_ASC_NODE = 347.2338
ARG_OF_PERICENTER = 358.0355
MEAN_ANOMALY   = 2.0746

EPHEMERIS_TYPE = 0
CLASSIFICATION_TYPE = U
NORAD_CAT_ID   = 31792
ELEMENT_SET_NO = 999
REV_AT_EPOCH   = 95441
BSTAR          = .21216E-3
MEAN_MOTION_DOT = .347E-5
MEAN_MOTION_DDOT = 0

CCSDS_OMM_VERS = 2.0
CREATION_DATE  = 
ORIGINATOR     = 

OBJECT_NAME    = SL-16 R/B
OBJECT_ID      = 2007-029B
CENTER_NAME    = EARTH
REF_FRAME      = TEME
TIME_SYSTEM    = UTC
MEAN_ELEMENT_THEORY = SGP/SGP4

EPOCH          = 2025-12-31T02:46:08.226336
MEAN_MOTION    = 14.14823312
ECCENTRICITY   = .0001987
INCLINATION    = 70.9772
RA_OF_ASC_NODE = 316.5300
ARG_OF_PERICENTER = 269.1534
MEAN_ANOMALY   = 102.1099

EPHEMERIS_TYPE = 0
CLASSIFICATION_TYPE = U
NORAD_CAT_ID   = 31793
ELEMENT_SET_NO = 999
REV_AT_EPOCH   = 95567
BSTAR          = .16184E-3
MEAN_MOTION_DOT = .264E-5
MEAN_MOTION_DDOT = 0

CCSDS_OMM_VERS = 2.0
CREATION_DATE  = 
ORIGINATOR     = 

OBJECT_NAME    = KORONAS-FOTON
OBJECT_ID      = 2009-003A
CENTER_NAME    = EARTH
REF_FRAME      = TEME
TIME_SYSTEM    = UTC
MEAN_ELEMENT_THEORY = SGP/SGP4

EPOCH          = 2025-12-30T23:55:19.045344
MEAN_MOTION    = 15.41565953
ECCENTRICITY   = .001297
INCLINATION    = 82.4308
RA_OF_ASC_NODE = 347.1824
ARG_OF_PERICENTER = 51.7774
MEAN_ANOMALY   = 308.4638

EPHEMERIS_TYPE = 0
CLASSIFICATION_TYPE = U
NORAD_CAT_ID   = 33504
ELEMENT_SET_NO = 999
REV_AT_EPOCH   = 93515
BSTAR          = .33912E-3
MEAN_MOTION_DOT = .14329E-3
MEAN_MOTION_DDOT = 0

CCSDS_OMM_VERS = 2.0
CREATION_DATE  = 
ORIGINATOR     = 

OBJECT_NAME    = CZ-2C R/B
OBJECT_ID      = 2011-030B
CENTER_NAME    = EARTH
REF_FRAME      = TEME
TIME_SYSTEM    = UTC
MEAN_ELEMENT_THEORY = SGP/SGP4

EPOCH          = 2025-12-30T21:43:52.571712
MEAN_MOTION    = 14.80964089
ECCENTRICITY   = .0051864
INCLINATION    = 97.8429
RA_OF_ASC_NODE = 318.6129
ARG_OF_PERICENTER = 212.9631
MEAN_ANOMALY   = 214.8200

EPHEMERIS_TYPE = 0
CLASSIFICATION_TYPE = U
NORAD_CAT_ID   = 37731
ELEMENT_SET_NO = 999
REV_AT_EPOCH   = 77991
BSTAR          = .33895E-3
MEAN_MOTION_DOT = .263E-4
MEAN_MOTION_DDOT = 0

CCSDS_OMM_VERS = 2.0
CREATION_DATE  = 
ORIGINATOR     = 

OBJECT_NAME    = H-2A R/B
OBJECT_ID      = 2012-025E
CENTER_NAME    = EARTH
REF_FRAME      = TEME
TIME_SYSTEM    = UTC
MEAN_ELEMENT_THEORY = SGP/SGP4

EPOCH          = 2025-12-31T02:50:52.885824
MEAN_MOTION    = 14.94580065
ECCENTRICITY   = .0044888
INCLINATION    = 98.4620
RA_OF_ASC_NODE = 321.7698
ARG_OF_PERICENTER = 175.0033
MEAN_ANOMALY   = 185.1642

EPHEMERIS_TYPE = 0
CLASSIFICATION_TYPE = U
NORAD_CAT_ID   = 38341
ELEMENT_SET_NO = 999
REV_AT_EPOCH   = 73797
BSTAR          = .4901E-3
MEAN_MOTION_DOT = .5341E-4
MEAN_MOTION_DDOT = 0

CCSDS_OMM_VERS = 2.0
CREATION_DATE  = 
ORIGINATOR     = 

OBJECT_NAME    = SHIJIAN-16 (SJ-16)
OBJECT_ID      = 2013-057A
CENTER_NAME    = EARTH
REF_FRAME      = TEME
TIME_SYSTEM    = UTC
MEAN_ELEMENT_THEORY = SGP/SGP4

EPOCH          = 2025-12-31T04:13:43.729248
MEAN_MOTION    = 14.92059840
ECCENTRICITY   = .0018021
INCLINATION    = 74.9738
RA_OF_ASC_NODE = 314.7679
ARG_OF_PERICENTER = 277.2067
MEAN_ANOMALY   = 82.7072

EPHEMERIS_TYPE = 0
CLASSIFICATION_TYPE = U
NORAD_CAT_ID   = 39358
ELEMENT_SET_NO = 999
REV_AT_EPOCH   = 66128
BSTAR          = .28584E-3
MEAN_MOTION_DOT = .2882E-4
MEAN_MOTION_DDOT = 0

